ONEWEB-0371             
1 49297U 21090U   24295.30910899  .00000095  00000+0  20559-3 0  9991
2 49297  87.9155  65.0506 0001697  93.5474 266.5853 13.19727723146801
ONEWEB-0372             
1 49298U 21090V   24295.22821643  .00000164  00000+0  37223-3 0  9994
2 49298  87.9291  34.5869 0001899 101.3895 258.7451 13.20772649150110
ONEWEB-0373             
1 49299U 21090W   24295.25517541  .00000012  00000+0 -32070-5 0  9997
2 49299  87.9289  34.5958 0001569 108.5368 251.5936 13.20772635151301
ONEWEB-0374             
1 49300U 21090X   24295.27636153 -.00000129  00000+0 -38340-3 0  9997
2 49300  87.9012  49.7881 0001745 103.7265 256.4059 13.14504030148222
ONEWEB-0375             
1 49301U 21090Y   24295.24253439  .00000169  00000+0  38314-3 0  9990
2 49301  87.9289  34.5752 0001332 123.0477 237.0785 13.20771160150805
ONEWEB-0376             
1 49302U 21090Z   24295.38334230 -.00000210  00000+0 -55736-3 0  9991
2 49302  87.9141  65.0355 0001963  89.4599 270.6759 13.19724315146819
ONEWEB-0377             
1 49303U 21090AA  24296.21332446  .00000100  00000+0  21477-3 0  9993
2 49303  87.9289  34.3742 0001518  96.7606 263.3700 13.20771805152201
ONEWEB-0378             
1 49304U 21090AB  24296.23542375  .00000133  00000+0  29471-3 0  9998
2 49304  87.9294  34.3750 0001655 102.7236 257.4082 13.20771936151511
